NORAD_CAT_ID,OBJECT_NAME,OBJECT_TYPE,EPOCH,MEAN_MOTION,ECCENTRICITY,INCLINATION,RA_OF_ASC_NODE,ARG_OF_PERICENTER,MEAN_ANOMALY,BSTAR,MEAN_MOTION_DOT,MEAN_MOTION_DDOT,TLE_LINE0,TLE_LINE1,TLE_LINE2,SEMIMAJOR_AXIS,PERIOD,APOGEE,PERIGEE,DECAYED
49134.0,STARLINK-3078,PAYLOAD,2021-09-20 14:00:01,15.87574827,0.0039568,70.0004,109.0013,159.7804,85.8586,-0.0043533,-0.01233574,0.00042667,0 STARLINK-3078,1 49134U 21082E   21263.58334491 -.01233574  42667-3 -43533-2 0  9990,2 49134  70.0004 109.0013 0039568 159.7804  85.8586 15.87574827  2313,6687.221,90.704,335.546,282.626,0.0
49134.0,STARLINK-3078,PAYLOAD,2021-09-20 20:00:01,15.86963764,0.0036597,70.0002,108.2802,160.0395,73.7031,-0.0044817,-0.0121986,0.00041556,0 STARLINK-3078,1 49134U 21082E   21263.83334491 -.01219860  41556-3 -44817-2 0  9992,2 49134  70.0002 108.2802 0036597 160.0395  73.7031 15.86963764  2353,6688.938,90.739,335.282,286.323,0.0
49134.0,STARLINK-3078,PAYLOAD,2021-09-20 22:00:00,15.86787139,0.0035650999999999,70.0001,108.04,160.562,189.0848,-0.0047224,-0.01269973,0.0004469,0 STARLINK-3078,1 49134U 21082E   21263.91667824 -.01269973  44690-3 -47224-2 0  9997,2 49134  70.0001 108.0400 0035651 160.5620 189.0848 15.86787139  1389,6689.434,90.749,335.148,287.451,0.0
49134.0,STARLINK-3078,PAYLOAD,2021-09-21 04:00:00,15.8618488,0.0033916,69.9998,107.3196,161.2575,175.7658,-0.0048975,-0.01271839,0.00044562,0 STARLINK-3078,1 49134U 21082E   21264.16667824 -.01271839  44562-3 -48975-2 0  9991,2 49134  69.9998 107.3196 0033916 161.2575 175.7658 15.86184880  2403,6691.127,90.784,335.686,290.2990000000001,0.0
49134.0,STARLINK-3078,PAYLOAD,2021-09-21 12:00:00,15.85357257,0.003008,70.0,106.3602,162.2739,277.0825,-0.0049621,-0.0122534,0.00041283,0 STARLINK-3078,1 49134U 21082E   21264.50001157 -.01225340  41283-3 -49621-2 0  9992,2 49134  70.0000 106.3602 0030080 162.2739 277.0825 15.85357257  2459,6693.456,90.831,335.455,295.187,0.0
49134.0,STARLINK-3078,PAYLOAD,2021-09-21 14:00:01,15.85148,0.0029433,70.0003,106.1205,162.414,32.4411,-0.0049387,-0.01205489,0.00039979,0 STARLINK-3078,1 49134U 21082E   21264.58335648 -.01205489  39979-3 -49387-2 0  9995,2 49134  70.0003 106.1205 0029433 162.4140  32.4411 15.85148000  1498,6694.045,90.843,335.61300000000006,296.207,0.0
49134.0,STARLINK-3078,PAYLOAD,2021-09-21 22:00:00,15.8436996,0.0026053,70.0001,105.1626,164.1806,131.7186,-0.0054141999999999,-0.01262768,0.00043252,0 STARLINK-3078,1 49134U 21082E   21264.91667824 -.01262768  43252-3 -54142-2 0  9993,2 49134  70.0001 105.1626 0026053 164.1806 131.7186 15.84369960  2521,6696.236,90.888,335.547,300.656,0.0
49134.0,STARLINK-3078,PAYLOAD,2021-09-22 06:00:02,15.83561539,0.0023223,69.9998,104.2057,166.9284,229.1924,-0.0056256,-0.01120312,0.0,0 STARLINK-3078,1 49134U 21082E   21265.25002315 -.01120312  00000-0 -56256-2 0  9996,2 49134  69.9998 104.2057 0023223 166.9284 229.1924 15.83561539  2579,6698.515,90.934,335.936,304.824,0.0
49134.0,STARLINK-3078,PAYLOAD,2021-09-22 14:00:01,15.82732364,0.0019638,70.0002,103.25,169.1692,326.0829,-0.0056331,-0.01075382,0.0,0 STARLINK-3078,1 49134U 21082E   21265.58334491 -.01075382  00000-0 -56331-2 0  9995,2 49134  70.0002 103.2500 0019638 169.1692 326.0829 15.82732364  1657,6700.854,90.982,335.879,309.56,0.0
49134.0,STARLINK-3078,PAYLOAD,2021-09-22 20:00:01,15.82132013,0.0017359,70.0,102.534,172.4911,306.519,-0.0058519,-0.01080582,0.0,0 STARLINK-3078,1 49134U 21082E   21265.83334491 -.01080582  00000-0 -58519-2 0  9991,2 49134  70.0000 102.5340 0017359 172.4911 306.5190 15.82132013  1691,6702.549,91.016,336.0490000000001,312.78,0.0
49134.0,STARLINK-3078,PAYLOAD,2021-09-23 06:00:02,15.81156913,0.0014686,69.9999,101.3418,179.8861,150.9048,-0.0064676,-0.01129334,0.0,0 STARLINK-3078,1 49134U 21082E   21266.25002315 -.01129334  00000-0 -64676-2 0  9995,2 49134  69.9999 101.3418 0014686 179.8861 150.9048 15.81156913  2736,6705.305,91.073,337.017,317.322,0.0
49134.0,STARLINK-3078,PAYLOAD,2021-09-23 14:00:01,15.80335355,0.001132,70.0003,100.3897,190.2447,236.7809,-0.0065464,-0.01098991,0.0,0 STARLINK-3078,1 49134U 21082E   21266.58334491 -.01098991  00000-0 -65464-2 0  9994,2 49134  70.0003 100.3897 0011320 190.2447 236.7809 15.80335355  1818,6707.629,91.12,337.087,321.901,0.0
49134.0,STARLINK-3078,PAYLOAD,2021-09-23 20:00:01,15.79739416,0.0009953,70.0001,99.6763,199.8301,208.8465,-0.0068198,-0.0113031,0.0,0 STARLINK-3078,1 49134U 21082E   21266.83335648 -.01130310  00000-0 -68198-2 0  9996,2 49134  70.0001  99.6763 0009953 199.8301 208.8465 15.79739416  2825,6709.315,91.154,337.858,324.503,0.0
49134.0,STARLINK-3078,PAYLOAD,2021-09-23 22:00:01,15.79515619,0.0009372,70.0001,99.4386,202.8858,319.5404,-0.006625,-0.01071971,0.0,0 STARLINK-3078,1 49134U 21082E   21266.91668981 -.01071971  00000-0 -66250-2 0  9998,2 49134  70.0001  99.4386 0009372 202.8858 319.5404 15.79515619  1864,6709.949000000001,91.167,338.103,325.526,0.0
49134.0,STARLINK-3078,PAYLOAD,2021-09-24 14:00:01,15.77926638,0.0008343999999999,70.0002,97.5396,228.1037,122.0154,-0.0073673,-0.01123372,0.0,0 STARLINK-3078,1 49134U 21082E   21267.58334491 -.01123372  00000-0 -73673-2 0  9998,2 49134  70.0002  97.5396 0008344 228.1037 122.0154 15.77926638  1979,6714.453,91.259,341.921,330.715,0.0
49134.0,STARLINK-3078,PAYLOAD,2021-09-24 22:00:00,15.77117471,0.0008102,70.0,96.5917,230.5121,212.0442,-0.0075819,-0.01115493,0.0,0 STARLINK-3078,1 49134U 21082E   21267.91667824 -.01115493  00000-0 -75819-2 0  9993,2 49134  70.0000  96.5917 0008102 230.5121 212.0442 15.77117471  2998,6716.749,91.306,344.056,333.173,0.0
49134.0,STARLINK-3078,PAYLOAD,2021-09-25 06:00:02,15.76314461,0.000866,69.9998,95.6449,229.2231,304.8692,-0.0078754999999999,-0.01118244,0.0,0 STARLINK-3078,1 49134U 21082E   21268.25002315 -.01118244  00000-0 -78755-2 0  9998,2 49134  69.9998  95.6449 0008660 229.2231 304.8692 15.76314461  2070,6719.03,91.352,346.714,335.077,0.0
49134.0,STARLINK-3078,PAYLOAD,2021-09-25 14:00:01,15.75509791,0.0007777999999999,70.0003,94.6996,229.1023,35.4299,-0.0081496,-0.01116093,0.0,0 STARLINK-3078,1 49134U 21082E   21268.58334491 -.01116093  00000-0 -81496-2 0  9993,2 49134  70.0003  94.6996 0007778 229.1023  35.4299 15.75509791  3109,6721.318,91.399,348.411,337.955,0.0
49134.0,STARLINK-3078,PAYLOAD,2021-09-26 00:00:00,15.74501836,0.0007668999999999,69.9999,93.5192,233.1249,233.1838,-0.0084853,-0.01112203,0.0,0 STARLINK-3078,1 49134U 21082E   21269.00001157 -.01112203  00000-0 -84853-2 0  9990,2 49134  69.9999  93.5192 0007669 233.1249 233.1838 15.74501836  2195,6724.186,91.457,351.208,340.894,0.0
49134.0,STARLINK-3078,PAYLOAD,2021-09-26 06:00:00,15.73900309,0.0004379,70.0,92.8119,249.6753,192.9746,-0.0087493,-0.0111429,0.0,0 STARLINK-3078,1 49134U 21082E   21269.25001157 -.01114290  00000-0 -87493-2 0  9998,2 49134  70.0000  92.8119 0004379 249.6753 192.9746 15.73900309  3209,6725.899,91.492,350.71,344.819,0.0
49134.0,STARLINK-3078,PAYLOAD,2021-09-26 14:00:01,15.7309452,0.00065,70.0002,91.8697,308.6395,221.6222,-0.0090275,-0.01112259,0.0,0 STARLINK-3078,1 49134U 21082E   21269.58334491 -.01112259  00000-0 -90275-2 0  9999,2 49134  70.0002  91.8697 0006500 308.6395 221.6222 15.73094520  3250,6728.196,91.539,354.434,345.68800000000016,0.0
49134.0,STARLINK-3078,PAYLOAD,2021-09-26 22:00:01,15.72289206,0.0003539,70.0,90.9286,264.2226,352.7515,-0.0093398,-0.01109837,0.0,0 STARLINK-3078,1 49134U 21082E   21269.91668981 -.01109837  00000-0 -93398-2 0  9997,2 49134  70.0000  90.9286 0003539 264.2226 352.7515 15.72289206  3315,6730.493,91.586,354.74,349.976,0.0
49134.0,STARLINK-3078,PAYLOAD,2021-09-27 14:00:01,15.7063736,0.0003776,70.0002,89.0501,280.4588,146.8575,-0.0090628,-0.01014303,0.0,0 STARLINK-3078,1 49134U 21082E   21270.58334491 -.01014303  00000-0 -90628-2 0  9994,2 49134  70.0002  89.0501 0003776 280.4588 146.8575 15.70637360  3415,6735.2109999999975,91.683,359.62,354.533,0.0
49134.0,STARLINK-3078,PAYLOAD,2021-09-27 22:00:01,15.69755228,0.0003545,70.0001,88.1123,279.8542,231.2815,-0.00011647,-0.00014097,0.0,0 STARLINK-3078,1 49134U 21082E   21270.91668981 -.00014097  00000-0 -11647-3 0  9999,2 49134  70.0001  88.1123 0003545 279.8542 231.2815 15.69755228  3463,6737.734,91.734,361.98800000000006,357.211,0.0
49134.0,STARLINK-3078,PAYLOAD,2021-09-28 14:00:01,15.6975,0.0003452,70.0003,86.2385,266.3588,50.9656,-4.2019e-05,-5.225e-05,0.0,0 STARLINK-3078,1 49134U 21082E   21271.58334491 -.00005225  00000-0 -42019-4 0  9990,2 49134  70.0003  86.2385 0003452 266.3588  50.9656 15.69750000  2609,6737.749,91.734,361.94,357.288,0.0
49134.0,STARLINK-3078,PAYLOAD,2021-09-28 22:00:00,15.69746797,0.0003569,69.9999,85.3015,277.5632,122.8884,7.5864e-06,6.93e-06,0.0,0 STARLINK-3078,1 49134U 21082E   21271.91667824  .00000693  00000-0  75864-5 0  9993,2 49134  69.9999  85.3015 0003569 277.5632 122.8884 15.69746797  3626,6737.7580000000025,91.735,362.028,357.219,0.0
49134.0,STARLINK-3078,PAYLOAD,2021-09-29 14:00:01,15.69838558,0.000344,70.0028,83.4351,272.5277,294.2981,-0.00083004,-0.0009851,0.0,0 STARLINK-3078,1 49134U 21082E   21272.58334491 -.00098510  00000-0 -83004-3 0  9998,2 49134  70.0028  83.4351 0003440 272.5277 294.2981 15.69838558  3733,6737.496,91.729,361.679,357.043,0.0
49134.0,STARLINK-3078,PAYLOAD,2021-09-29 22:00:01,15.69761996,0.0003434,70.0019,82.4967,279.2787,10.8061,0.00038363,0.00045859,0.0,0 STARLINK-3078,1 49134U 21082E   21272.91668981  .00045859  00000-0  38363-3 0  9993,2 49134  70.0019  82.4967 0003434 279.2787  10.8061 15.69761996  3785,6737.715,91.734,361.894,357.266,0.0
49134.0,STARLINK-3078,PAYLOAD,2021-09-30 06:00:02,15.69727854,0.0003454,70.0025,81.561,272.7255,100.5169,5.1209e-05,5.9e-05,0.0,0 STARLINK-3078,1 49134U 21082E   21273.25002315  .00005900  00000-0  51209-4 0  9992,2 49134  70.0025  81.5610 0003454 272.7255 100.5169 15.69727854  3834,6737.813,91.736,362.005,357.35,0.0
